NORAD_CAT_ID,OBJECT_NAME,OBJECT_TYPE,EPOCH,MEAN_MOTION,ECCENTRICITY,INCLINATION,RA_OF_ASC_NODE,ARG_OF_PERICENTER,MEAN_ANOMALY,BSTAR,MEAN_MOTION_DOT,MEAN_MOTION_DDOT,TLE_LINE0,TLE_LINE1,TLE_LINE2,SEMIMAJOR_AXIS,PERIOD,APOGEE,PERIGEE,DECAYED
53391.0,STARLINK-4521,PAYLOAD,2022-08-26 06:00:00,15.73223414,0.0001211999999999,53.2207,168.6099,68.8835,191.4808,-5.4494e-05,-8.268e-05,0.0,0 STARLINK-4521,1 53391U 22097D   22238.25001157 -.00008268  00000-0 -54494-4 0  9995,2 53391  53.2207 168.6099 0001212  68.8835 191.4808 15.73223414  2954,6727.828,91.532,350.509,348.87800000000016,0.0
53391.0,STARLINK-4521,PAYLOAD,2022-08-26 14:00:01,15.73185492,0.0001193999999999,53.2206,166.9585,82.1943,267.206,7.5058e-05,9.92e-05,0.0,0 STARLINK-4521,1 53391U 22097D   22238.58335648  .00009920  00000-0  75058-4 0  9999,2 53391  53.2206 166.9585 0001194  82.1943 267.2060 15.73185492  1305,6727.937,91.534,350.605,348.99800000000016,0.0
53391.0,STARLINK-4521,PAYLOAD,2022-08-26 20:00:01,15.732100199999998,0.000117,53.2202,165.7204,86.8918,239.1232,-0.00042407,-0.00059738,0.0,0 STARLINK-4521,1 53391U 22097D   22238.83334491 -.00059738  00000-0 -42407-3 0  9997,2 53391  53.2202 165.7204 0001170  86.8918 239.1232 15.73210020  3041,6727.8669999999975,91.533,350.519,348.944,0.0
53391.0,STARLINK-4521,PAYLOAD,2022-08-26 22:00:00,15.73189916,0.0001139999999999,53.2196,165.3079,82.8503,355.4015,-0.00025321,-0.00035988,0.0,0 STARLINK-4521,1 53391U 22097D   22238.91667824 -.00035988  00000-0 -25321-3 0  9992,2 53391  53.2196 165.3079 0001140  82.8503 355.4015 15.73189916  1309,6727.924,91.534,350.556,349.022,0.0
53391.0,STARLINK-4521,PAYLOAD,2022-08-27 14:00:01,15.73060391,0.0001167,53.2176,162.002,80.8602,175.0165,-0.0089584,-0.01117151,0.0,0 STARLINK-4521,1 53391U 22097D   22239.58334491 -.01117151  00000-0 -89584-2 0  9991,2 53391  53.2176 162.0020 0001167  80.8602 175.0165 15.73060391  1301,6728.293000000002,91.541,350.9430000000001,349.37300000000016,0.0
53391.0,STARLINK-4521,PAYLOAD,2022-08-27 22:00:00,15.72251825,0.0001051,53.2176,160.3512,68.1634,275.9784,-0.0092164,-0.01110725,0.0,0 STARLINK-4521,1 53391U 22097D   22239.91667824 -.01110725  00000-0 -92164-2 0  9995,2 53391  53.2176 160.3512 0001051  68.1634 275.9784 15.72251825  1304,6730.6,91.588,353.172,351.75699999999995,0.0
53391.0,STARLINK-4521,PAYLOAD,2022-08-28 14:00:01,15.70642771,0.0001164,53.2174,157.0546,74.0364,83.7361,-0.0098067,-0.01104428,0.0,0 STARLINK-4521,1 53391U 22097D   22240.58334491 -.01104428  00000-0 -98067-2 0  9992,2 53391  53.2174 157.0546 0001164  74.0364  83.7361 15.70642771  3325,6735.196,91.682,357.845,356.277,0.0
53391.0,STARLINK-4521,PAYLOAD,2022-08-28 22:00:00,15.69841045,0.0001211999999999,53.2176,155.4105,69.7679,173.3707,-0.010159,-0.01105971,0.0,0 STARLINK-4521,1 53391U 22097D   22240.91667824 -.01105971  00000-0 -10159-1 0  9997,2 53391  53.2176 155.4105 0001212  69.7679 173.3707 15.69841045  1303,6737.489000000001,91.729,360.17,358.537,0.0
53391.0,STARLINK-4521,PAYLOAD,2022-08-29 06:00:02,15.69037853,9.72e-05,53.2172,153.7686,84.7349,242.8714,-0.010489,-0.01104291,0.0,0 STARLINK-4521,1 53391U 22097D   22241.25002315 -.01104291  00000-0 -10489-1 0  9993,2 53391  53.2172 153.7686 0000972  84.7349 242.8714 15.69037853  3426,6739.788000000001,91.776,362.3080000000001,360.99800000000016,0.0
53391.0,STARLINK-4521,PAYLOAD,2022-08-29 14:00:01,15.68233457,9.63e-05,53.2173,152.1254,95.5174,315.4634,-0.010831,-0.01103007,0.0,0 STARLINK-4521,1 53391U 22097D   22241.58334491 -.01103007  00000-0 -10831-1 0  9997,2 53391  53.2173 152.1254 0000963  95.5174 315.4634 15.68233457  1307,6742.092,91.823,364.607,363.3080000000001,0.0
53391.0,STARLINK-4521,PAYLOAD,2022-08-29 22:00:00,15.67431605,0.0001278,53.2174,150.4872,61.5734,71.8785,-0.011204,-0.01103929,0.0,0 STARLINK-4521,1 53391U 22097D   22241.91667824 -.01103929  00000-0 -11204-1 0  9991,2 53391  53.2174 150.4872 0001278  61.5734  71.8785 15.67431605  3531,6744.392,91.87,367.11800000000005,365.395,0.0
53391.0,STARLINK-4521,PAYLOAD,2022-08-30 14:00:01,15.65833581,0.0001017,53.218,147.2154,77.9886,217.5091,-0.012052,-0.01129752,0.0,0 STARLINK-4521,1 53391U 22097D   22242.58334491 -.01129752  00000-0 -12052-1 0  9990,2 53391  53.2180 147.2154 0001017  77.9886 217.5091 15.65833581  3632,6748.979,91.964,371.531,370.158,0.0
53391.0,STARLINK-4521,PAYLOAD,2022-08-30 22:00:00,15.65055174,9.57e-05,53.2182,145.583,95.534,279.5297,-0.012827,-0.01161843,0.0,0 STARLINK-4521,1 53391U 22097D   22242.91667824 -.01161843  00000-0 -12827-1 0  9993,2 53391  53.2182 145.5830 0000957  95.5340 279.5297 15.65055174  1301,6751.217,92.01,373.728,372.436,0.0
53391.0,STARLINK-4521,PAYLOAD,2022-08-31 14:00:01,15.63416686,0.000123,53.2171,142.3196,70.8944,100.4502,-0.013144,-0.01119591,0.0,0 STARLINK-4521,1 53391U 22097D   22243.58334491 -.01119591  00000-0 -13144-1 0  9994,2 53391  53.2171 142.3196 0001230  70.8944 100.4502 15.63416686  3793,6755.933000000001,92.106,378.629,376.967,0.0
53391.0,STARLINK-4521,PAYLOAD,2022-08-31 22:00:00,15.62612947,0.000123,53.2174,140.6936,73.9375,174.0903,-0.013543,-0.01117723,0.0,0 STARLINK-4521,1 53391U 22097D   22243.91667824 -.01117723  00000-0 -13543-1 0  9998,2 53391  53.2174 140.6936 0001230  73.9375 174.0903 15.62612947  1305,6758.25,92.153,380.946,379.283,0.0
53391.0,STARLINK-4521,PAYLOAD,2022-09-01 06:00:00,15.61796775,0.0001071,53.2172,139.0703,80.9016,242.8514,-0.01375,-0.01100702,0.0,0 STARLINK-4521,1 53391U 22097D   22244.25001157 -.01100702  00000-0 -13750-1 0  9996,2 53391  53.2172 139.0703 0001071  80.9016 242.8514 15.61796775  3899,6760.604,92.201,383.193,381.745,0.0
53391.0,STARLINK-4521,PAYLOAD,2022-09-01 14:00:01,15.61007421,0.0001004999999999,53.2173,137.4429,77.8066,320.7608,-0.014435,-0.01118669,0.0,0 STARLINK-4521,1 53391U 22097D   22244.58335648 -.01118669  00000-0 -14435-1 0  9999,2 53391  53.2173 137.4429 0001005  77.8066 320.7608 15.61007421  1301,6762.8830000000025,92.248,385.427,384.068,0.0
53391.0,STARLINK-4521,PAYLOAD,2022-09-01 22:00:00,15.60205374,0.0001203,53.2174,135.82299999999998,72.593,39.6974,-0.0148949999999999,-0.0111905,0.0,0 STARLINK-4521,1 53391U 22097D   22244.91667824 -.01119050  00000-0 -14895-1 0  9995,2 53391  53.2174 135.8230 0001203  72.5930  39.6974 15.60205374  4004,6765.2,92.296,387.879,386.251,0.0
53391.0,STARLINK-4521,PAYLOAD,2022-09-02 14:00:01,15.58598691,0.0001175,53.2173,132.5839,80.193,176.7831,-0.0158139999999999,-0.01117276,0.0,0 STARLINK-4521,1 53391U 22097D   22245.58334491 -.01117276  00000-0 -15814-1 0  9990,2 53391  53.2173 132.5839 0001175  80.1930 176.7831 15.58598691  1304,6769.849,92.391,392.509,390.918,0.0
53391.0,STARLINK-4521,PAYLOAD,2022-09-02 22:00:01,15.57826706,0.0001029,53.2178,130.9712,87.055,240.8615,-0.016887,-0.01154552,0.0,0 STARLINK-4521,1 53391U 22097D   22245.91668981 -.01154552  00000-0 -16887-1 0  9990,2 53391  53.2178 130.9712 0001029  87.0550 240.8615 15.57826706  1306,6772.085,92.436,394.647,393.253,0.0
53391.0,STARLINK-4521,PAYLOAD,2022-09-03 06:00:00,15.57008609,0.0001111,53.217,129.3577,61.3559,336.4353,-0.017119,-0.0113672999999999,0.0,0 STARLINK-4521,1 53391U 22097D   22246.25001157 -.01136730  00000-0 -17119-1 0  9991,2 53391  53.2170 129.3577 0001111  61.3559 336.4353 15.57008609  4213,6774.456999999999,92.485,397.075,395.569,0.0
53391.0,STARLINK-4521,PAYLOAD,2022-09-03 14:00:01,15.56199444,0.0001261,53.2173,127.7438,56.0636,50.6968,-0.017505,-0.01128525,0.0,0 STARLINK-4521,1 53391U 22097D   22246.58334491 -.01128525  00000-0 -17505-1 0  9999,2 53391  53.2173 127.7438 0001261  56.0636  50.6968 15.56199444  1308,6776.805,92.533,399.525,397.816,0.0
53391.0,STARLINK-4521,PAYLOAD,2022-09-03 22:00:00,15.55386375,0.0001462,53.2171,126.1341,56.178,118.5886,-0.017805,-0.01115069,0.0,0 STARLINK-4521,1 53391U 22097D   22246.91667824 -.01115069  00000-0 -17805-1 0  9997,2 53391  53.2171 126.1341 0001462  56.1780 118.5886 15.55386375  1309,6779.167,92.581,402.023,400.041,0.0
53391.0,STARLINK-4521,PAYLOAD,2022-09-04 06:00:00,15.54586968,0.000122,53.2171,124.526,96.8657,144.9356,-0.018442,-0.01120603,0.0,0 STARLINK-4521,1 53391U 22097D   22247.25001157 -.01120603  00000-0 -18442-1 0  9994,2 53391  53.2171 124.5260 0001220  96.8657 144.9356 15.54586968  4360,6781.491,92.629,404.1830000000001,402.528,0.0
53391.0,STARLINK-4521,PAYLOAD,2022-09-04 14:00:01,15.53780044,0.0001102,53.2172,122.9181,84.984,222.9553,-0.018875,-0.01113997,0.0,0 STARLINK-4521,1 53391U 22097D   22247.58335648 -.01113997  00000-0 -18875-1 0  9993,2 53391  53.2172 122.9181 0001102  84.9840 222.9553 15.53780044  1303,6783.8380000000025,92.677,406.451,404.956,0.0
53391.0,STARLINK-4521,PAYLOAD,2022-09-04 20:00:01,15.53178636,0.0001266,53.2175,121.7163,68.2624,198.5308,-0.0192969999999999,-0.01114137,0.0,0 STARLINK-4521,1 53391U 22097D   22247.83334491 -.01114137  00000-0 -19297-1 0  9992,2 53391  53.2175 121.7163 0001266  68.2624 198.5308 15.53178636  1303,6785.589,92.713,408.31300000000016,406.595,0.0
53391.0,STARLINK-4521,PAYLOAD,2022-09-05 04:00:00,15.5237703,0.0001054999999999,53.2172,120.1142,76.4327,254.7419,-0.01989,-0.01115158,0.0,0 STARLINK-4521,1 53391U 22097D   22248.16667824 -.01115158  00000-0 -19890-1 0  9991,2 53391  53.2172 120.1142 0001055  76.4327 254.7419 15.52377030  4508,6787.925,92.761,410.506,409.074,0.0
53391.0,STARLINK-4521,PAYLOAD,2022-09-05 14:00:01,15.51375232,0.0001301,53.2174,118.1118,62.5919,77.7053,-0.020743,-0.01121046,0.0,0 STARLINK-4521,1 53391U 22097D   22248.58334491 -.01121046  00000-0 -20743-1 0  9990,2 53391  53.2174 118.1118 0001301  62.5919  77.7053 15.51375232  1300,6790.847,92.821,413.595,411.828,0.0
53391.0,STARLINK-4521,PAYLOAD,2022-09-05 22:00:00,15.50435007,0.0001406,53.2175,116.5162,57.6255,144.901,-0.011613,-0.00621755,0.0,0 STARLINK-4521,1 53391U 22097D   22248.91667824 -.00621755  00000-0 -11613-1 0  9993,2 53391  53.2175 116.5162 0001406  57.6255 144.9010 15.50435007  1302,6793.592,92.877,416.412,414.502,0.0
